NORAD_CAT_ID,OBJECT_NAME,OBJECT_TYPE,EPOCH,MEAN_MOTION,ECCENTRICITY,INCLINATION,RA_OF_ASC_NODE,ARG_OF_PERICENTER,MEAN_ANOMALY,BSTAR,MEAN_MOTION_DOT,MEAN_MOTION_DDOT,TLE_LINE0,TLE_LINE1,TLE_LINE2,SEMIMAJOR_AXIS,PERIOD,APOGEE,PERIGEE,DECAYED
52869.0,STARLINK-4266,PAYLOAD,2024-08-18 18:22:11,15.08836076,0.0001595,53.2187,43.6324,93.337,266.7805,9.0342e-05,1.15e-05,0.0,0 STARLINK-4266,1 52869U 22062AR  24231.76541313  .00001150  00000-0  90342-4 0  9993,2 52869  53.2187  43.6324 0001595  93.3370 266.7805 15.08836076120815,6917.892,95.438,540.861,538.654,0.0
52869.0,STARLINK-4266,PAYLOAD,2024-08-19 11:51:26,15.08835828,0.0001635,53.2189,40.3622,94.8664,265.2515,6.9899e-05,8.24e-06,0.0,0 STARLINK-4266,1 52869U 22062AR  24232.49405608  .00000824  00000-0  69899-4 0  9990,2 52869  53.2189  40.3622 0001635  94.8664 265.2515 15.08835828120433,6917.893,95.438,540.889,538.627,0.0
52869.0,STARLINK-4266,PAYLOAD,2024-08-19 19:48:22,15.08834614,0.0001534,53.2182,38.8737,88.1172,271.9995,5.4346e-05,5.77e-06,0.0,0 STARLINK-4266,1 52869U 22062AR  24232.82525859  .00000577  00000-0  54346-4 0  9994,2 52869  53.2182  38.8737 0001534  88.1172 271.9995 15.08834614120970,6917.897,95.438,540.823,538.701,0.0
52869.0,STARLINK-4266,PAYLOAD,2024-08-20 03:45:17,15.08893083,0.0001242,53.2182,37.39,93.2037,266.9098,-0.00055996,-9.202e-05,0.0,0 STARLINK-4266,1 52869U 22062AR  24233.15645537 -.00009202  00000-0 -55996-3 0  9994,2 52869  53.2182  37.3900 0001242  93.2037 266.9098 15.08893083121029,6917.718,95.434,540.442,538.724,0.0
52869.0,STARLINK-4266,PAYLOAD,2024-08-20 14:53:00,15.08830084,0.0001533,53.2189,35.3117,104.083,256.0333,2.2961e-05,7.7e-07,0.0,0 STARLINK-4266,1 52869U 22062AR  24233.62014440  .00000077  00000-0  22961-4 0  9995,2 52869  53.2189  35.3117 0001533 104.0830 256.0333 15.08830084120606,6917.911,95.438,540.836,538.715,0.0
52869.0,STARLINK-4266,PAYLOAD,2024-08-20 16:28:23,15.0883097,0.0001585,53.2193,35.0152,103.5107,256.6062,3.1195e-05,2.08e-06,0.0,0 STARLINK-4266,1 52869U 22062AR  24233.68638370  .00000208  00000-0  31195-4 0  9990,2 52869  53.2193  35.0152 0001585 103.5107 256.6062 15.08830970121100,6917.908,95.438,540.869,538.677,0.0
52869.0,STARLINK-4266,PAYLOAD,2024-08-21 14:43:46,15.08896166,0.0001528,53.2193,30.8516,125.8602,234.2533,-0.00078614,-0.00012797,0.0,0 STARLINK-4266,1 52869U 22062AR  24234.61372966 -.00012797  00000-0 -78614-3 0  9994,2 52869  53.2193  30.8516 0001528 125.8602 234.2533 15.08896166120755,6917.709,95.434,540.631,538.517,0.0
52869.0,STARLINK-4266,PAYLOAD,2024-08-21 19:29:56,15.08841572,7.7e-05,53.219,29.9612,96.37,263.738,-5.7497e-05,-1.203e-05,0.0,0 STARLINK-4266,1 52869U 22062AR  24234.81246324 -.00001203  00000-0 -57497-4 0  9991,2 52869  53.2190  29.9612 0000770  96.3700 263.7380 15.08841572121273,6917.876,95.437,540.273,539.208,0.0
